OBJECT C                
1 57582U 23117C   25051.19533321  .00014880  00000+0  63151-3 0  9990
2 57582  97.4563 126.7165 0010178 143.2655 216.9281 15.23144420 84843
